[
    {
        "Altitude(m)": 717079.4618297426,
        "Argument of Periapsis(deg)": 0.006834072711976239,
        "Eccentricity": 0.0,
        "Inclination(deg)": 45.0,
        "Latitude(deg)": -43.21312672566338,
        "Longitude(deg)": 65.40739929227848,
        "Mean Anomaly(deg)": -74.89827001151154,
        "RAAN(deg)": 234.99354883512507,
        "Satellite Name": "Constellation 1 1051",
        "Satellite Number": 1051,
        "Semi-Major Axis(m)": 7083131.272910544,
        "Time(s)": 114
    },
    {
        "Altitude(m)": 717073.1234725963,
        "Argument of Periapsis(deg)": 0.006894020718221645,
        "Eccentricity": 0.0,
        "Inclination(deg)": 45.0,
        "Latitude(deg)": -43.19782251638595,
        "Longitude(deg)": 65.48347983071261,
        "Mean Anomaly(deg)": -74.83756887126164,
        "RAAN(deg)": 234.99349224595946,
        "Satellite Name": "Constellation 1 1051",
        "Satellite Number": 1051,
        "Semi-Major Axis(m)": 7083131.272910544,
        "Time(s)": 115
    },
    {
        "Altitude(m)": 717066.7616865797,
        "Argument of Periapsis(deg)": 0.006953968724467052,
        "Eccentricity": 0.0,
        "Inclination(deg)": 45.0,
        "Latitude(deg)": -43.18246209787298,
        "Longitude(deg)": 65.55952031835201,
        "Mean Anomaly(deg)": -74.7768677310117,
        "RAAN(deg)": 234.9934356567939,
        "Satellite Name": "Constellation 1 1051",
        "Satellite Number": 1051,
        "Semi-Major Axis(m)": 7083131.272910544,
        "Time(s)": 116
    },
    {
        "Altitude(m)": 717060.3764950739,
        "Argument of Periapsis(deg)": 0.007013916730712457,
        "Eccentricity": 0.0,
        "Inclination(deg)": 45.0,
        "Latitude(deg)": -43.16704552768019,
        "Longitude(deg)": 65.63552065025931,
        "Mean Anomaly(deg)": -74.71616659076173,
        "RAAN(deg)": 234.99337906762835,
        "Satellite Name": "Constellation 1 1051",
        "Satellite Number": 1051,
        "Semi-Major Axis(m)": 7083131.272910544,
        "Time(s)": 117
    },
    {
        "Altitude(m)": 717053.9679215534,
        "Argument of Periapsis(deg)": 0.007073864736957864,
        "Eccentricity": 0.0,
        "Inclination(deg)": 45.0,
        "Latitude(deg)": -43.15157286349978,
        "Longitude(deg)": 65.71148072205196,
        "Mean Anomaly(deg)": -74.655465450512,
        "RAAN(deg)": 234.9933224784628,
        "Satellite Name": "Constellation 1 1051",
        "Satellite Number": 1051,
        "Semi-Major Axis(m)": 7083131.272910544,
        "Time(s)": 118
    },
    {
        "Altitude(m)": 717047.5359895682,
        "Argument of Periapsis(deg)": 0.0071338127432032696,
        "Eccentricity": 0.0,
        "Inclination(deg)": 45.0,
        "Latitude(deg)": -43.13604416315956,
        "Longitude(deg)": 65.78740026180648,
        "Mean Anomaly(deg)": -74.59476431026204,
        "RAAN(deg)": 234.99326588929722,
        "Satellite Name": "Constellation 1 1051",
        "Satellite Number": 1051,
        "Semi-Major Axis(m)": 7083131.272910544,
        "Time(s)": 119
    },
    {
        "Altitude(m)": 717041.0807227541,
        "Argument of Periapsis(deg)": 0.007193760749448674,
        "Eccentricity": 0.0,
        "Inclination(deg)": 45.0,
        "Latitude(deg)": -43.12045948462165,
        "Longitude(deg)": 65.86327950244461,
        "Mean Anomaly(deg)": -74.53406317001203,
        "RAAN(deg)": 234.99320930013164,
        "Satellite Name": "Constellation 1 1051",
        "Satellite Number": 1051,
        "Semi-Major Axis(m)": 7083131.272910544,
        "Time(s)": 120
    },
    {
        "Altitude(m)": 717034.6021448389,
        "Argument of Periapsis(deg)": 0.007253708755694079,
        "Eccentricity": 0.0,
        "Inclination(deg)": 45.0,
        "Latitude(deg)": -43.10481888598238,
        "Longitude(deg)": 65.93911817315328,
        "Mean Anomaly(deg)": -74.4733620297623,
        "RAAN(deg)": 234.99315271096606,
        "Satellite Name": "Constellation 1 1051",
        "Satellite Number": 1051,
        "Semi-Major Axis(m)": 7083131.272910544,
        "Time(s)": 121
    },
    {
        "Altitude(m)": 717028.1002796218,
        "Argument of Periapsis(deg)": 0.0073136567619394854,
        "Eccentricity": 0.0,
        "Inclination(deg)": 45.0,
        "Latitude(deg)": -43.08912242547074,
        "Longitude(deg)": 66.01491617177307,
        "Mean Anomaly(deg)": -74.41266088951234,
        "RAAN(deg)": 234.9930961218005,
        "Satellite Name": "Constellation 1 1051",
        "Satellite Number": 1051,
        "Semi-Major Axis(m)": 7083131.272910544,
        "Time(s)": 122
    },
    {
        "Altitude(m)": 717021.5751509959,
        "Argument of Periapsis(deg)": 0.0073736047681848904,
        "Eccentricity": 0.0,
        "Inclination(deg)": 45.0,
        "Latitude(deg)": -43.07337016144767,
        "Longitude(deg)": 66.09067339670011,
        "Mean Anomaly(deg)": -74.35195974926239,
        "RAAN(deg)": 234.99303953263492,
        "Satellite Name": "Constellation 1 1051",
        "Satellite Number": 1051,
        "Semi-Major Axis(m)": 7083131.272910544,
        "Time(s)": 123
    },
    {
        "Altitude(m)": 717015.0267829514,
        "Argument of Periapsis(deg)": 0.007433552774430298,
        "Eccentricity": 0.0,
        "Inclination(deg)": 45.0,
        "Latitude(deg)": -43.057562152405254,
        "Longitude(deg)": 66.16638974688716,
        "Mean Anomaly(deg)": -74.29125860901243,
        "RAAN(deg)": 234.99298294346937,
        "Satellite Name": "Constellation 1 1051",
        "Satellite Number": 1051,
        "Semi-Major Axis(m)": 7083131.272910544,
        "Time(s)": 124
    },
    {
        "Altitude(m)": 717008.455199534,
        "Argument of Periapsis(deg)": 0.007493500780675703,
        "Eccentricity": 0.0,
        "Inclination(deg)": 45.0,
        "Latitude(deg)": -43.04169845696575,
        "Longitude(deg)": 66.24206512184344,
        "Mean Anomaly(deg)": -74.2305574687627,
        "RAAN(deg)": 234.99292635430382,
        "Satellite Name": "Constellation 1 1051",
        "Satellite Number": 1051,
        "Semi-Major Axis(m)": 7083131.272910544,
        "Time(s)": 125
    },
    {
        "Altitude(m)": 717001.8604249005,
        "Argument of Periapsis(deg)": 0.007553448786921108,
        "Eccentricity": 0.0,
        "Inclination(deg)": 45.0,
        "Latitude(deg)": -43.0257791338806,
        "Longitude(deg)": 66.3176992535391,
        "Mean Anomaly(deg)": -74.16985632851268,
        "RAAN(deg)": 234.9928697651382,
        "Satellite Name": "Constellation 1 1051",
        "Satellite Number": 1051,
        "Semi-Major Axis(m)": 7083131.272910544,
        "Time(s)": 126
    },
    {
        "Altitude(m)": 716995.2424832755,
        "Argument of Periapsis(deg)": 0.007613396793166514,
        "Eccentricity": 0.0,
        "Inclination(deg)": 45.0,
        "Latitude(deg)": -43.00980424202943,
        "Longitude(deg)": 66.3932923787907,
        "Mean Anomaly(deg)": -74.10915518826285,
        "RAAN(deg)": 234.99281317597266,
        "Satellite Name": "Constellation 1 1051",
        "Satellite Number": 1051,
        "Semi-Major Axis(m)": 7083131.272910544,
        "Time(s)": 127
    },
    {
        "Altitude(m)": 716988.6013989795,
        "Argument of Periapsis(deg)": 0.007673344799411918,
        "Eccentricity": 0.0,
        "Inclination(deg)": 45.0,
        "Latitude(deg)": -42.99377384041964,
        "Longitude(deg)": 66.46884423068228,
        "Mean Anomaly(deg)": -74.04845404801299,
        "RAAN(deg)": 234.99275658680708,
        "Satellite Name": "Constellation 1 1051",
        "Satellite Number": 1051,
        "Semi-Major Axis(m)": 7083131.272910544,
        "Time(s)": 128
    },
    {
        "Altitude(m)": 716981.9371964079,
        "Argument of Periapsis(deg)": 0.007733292805657325,
        "Eccentricity": 0.0,
        "Inclination(deg)": 45.0,
        "Latitude(deg)": -42.977687988185046,
        "Longitude(deg)": 66.54435471095202,
        "Mean Anomaly(deg)": -73.98775290776302,
        "RAAN(deg)": 234.99269999764152,
        "Satellite Name": "Constellation 1 1051",
        "Satellite Number": 1051,
        "Semi-Major Axis(m)": 7083131.272910544,
        "Time(s)": 129
    },
    {
        "Altitude(m)": 716975.2499000428,
        "Argument of Periapsis(deg)": 0.00779324081190273,
        "Eccentricity": 0.0,
        "Inclination(deg)": 45.0,
        "Latitude(deg)": -42.96154674458519,
        "Longitude(deg)": 66.6198237218954,
        "Mean Anomaly(deg)": -73.92705176751308,
        "RAAN(deg)": 234.99264340847597,
        "Satellite Name": "Constellation 1 1051",
        "Satellite Number": 1051,
        "Semi-Major Axis(m)": 7083131.272910544,
        "Time(s)": 130
    },
    {
        "Altitude(m)": 716968.5395344527,
        "Argument of Periapsis(deg)": 0.007853188818148135,
        "Eccentricity": 0.0,
        "Inclination(deg)": 45.0,
        "Latitude(deg)": -42.945350169004385,
        "Longitude(deg)": 66.69525116636531,
        "Mean Anomaly(deg)": -73.86635062726327,
        "RAAN(deg)": 234.9925868193104,
        "Satellite Name": "Constellation 1 1051",
        "Satellite Number": 1051,
        "Semi-Major Axis(m)": 7083131.272910544,
        "Time(s)": 131
    },
    {
        "Altitude(m)": 716961.8061242913,
        "Argument of Periapsis(deg)": 0.007913136824393542,
        "Eccentricity": 0.0,
        "Inclination(deg)": 45.0,
        "Latitude(deg)": -42.92909832095064,
        "Longitude(deg)": 66.77063694777328,
        "Mean Anomaly(deg)": -73.80564948701334,
        "RAAN(deg)": 234.99253023014484,
        "Satellite Name": "Constellation 1 1051",
        "Satellite Number": 1051,
        "Semi-Major Axis(m)": 7083131.272910544,
        "Time(s)": 132
    }
]